IRIDIUM 138             
1 43071U 17083B   26187.85165569  .00000062  00000+0  15106-4 0  9997
2 43071  86.3995 313.4929 0002101  89.4730 270.6707 14.34218277446959
IRIDIUM 116             
1 43072U 17083C   26187.88971128  .00000309  00000+0  10338-3 0  9992
2 43072  86.3981 313.7641 0002330 100.6241 259.5217 14.34218941446990
IRIDIUM 130             
1 43073U 17083D   26187.85799797  .00000087  00000+0  24021-4 0  9998
2 43073  86.3989 314.0546 0002132 100.4453 259.6983 14.34218303446937
IRIDIUM 151             
1 43074U 17083E   26187.90239613  .00000102  00000+0  29404-4 0  9999
2 43074  86.3985 313.8173 0002218  94.1421 266.0028 14.34218675446963
IRIDIUM 134             
1 43075U 17083F   26187.87068372 -.00000038  00000+0 -20486-4 0  9999
2 43075  86.3981 313.8389 0002052  95.4828 264.6602 14.34217455446923
IRIDIUM 137             
1 43076U 17083G   26187.88337117  .00000248  00000+0  81627-4 0  9992
2 43076  86.3994 313.9278 0002770  99.3077 260.8432 14.34214448446997
IRIDIUM 141             
1 43077U 17083H   26187.87702681  .00000057  00000+0  13213-4 0  9998
2 43077  86.3980 313.7587 0002182  92.1792 267.9654 14.34218072446997
IRIDIUM 153             
1 43078U 17083J   26188.17804697  .00000245  00000+0  80432-4 0  9999
2 43078  86.3964 282.1134 0002117  93.2182 266.9256 14.34218862448143
IRIDIUM 131             
1 43079U 17083K   26187.86434167  .00000011  00000+0 -32544-5 0  9990
2 43079  86.3984 313.9514 0002121  93.3240 266.8199 14.34217791446921
IRIDIUM 144             
1 43249U 18030A   26188.18439126  .00000070  00000+0  18053-4 0  9990
2 43249  86.3962 282.0393 0002342  97.8658 262.2804 14.34217939433006
IRIDIUM 149             
1 43250U 18030B   26187.70235287  .00000108  00000+0  31397-4 0  9999
2 43250  86.3961 282.2075 0002265  93.5688 266.5767 14.34218704432955
IRIDIUM 157             
1 43251U 18030C   26187.72138110  .00000088  00000+0  24201-4 0  9992
2 43251  86.3966 282.2535 0002256  95.4380 264.7073 14.34218420432935
IRIDIUM 140             
1 43252U 18030D   26187.87994431  .00000141  00000+0  43425-4 0  9994
2 43252  86.3963 282.1994 0002232  95.8847 264.2604 14.34219162433016
IRIDIUM 145             
1 43253U 18030E   26187.86725527  .00000105  00000+0  30347-4 0  9991
2 43253  86.3963 282.1770 0002365 102.8057 257.3403 14.34216706432940
IRIDIUM 146             
1 43254U 18030F   26188.19707454  .00000089  00000+0  24889-4 0  9993
2 43254  86.3962 282.0512 0002338  97.8784 262.2677 14.34218794433008
IRIDIUM 148             
1 43255U 18030G   26187.67698377  .00000195  00000+0  62416-4 0  9995
2 43255  86.3966 282.3122 0002340  94.9557 265.1906 14.34217543432964
IRIDIUM 142             
1 43256U 18030H   26188.20341902  .00000244  00000+0  79963-4 0  9995
2 43256  86.3962 281.9803 0002336  99.3967 260.7493 14.34216292433009
IRIDIUM 150             
1 43257U 18030J   26187.68332520  .00000110  00000+0  32293-4 0  9990
2 43257  86.3964 282.3148 0002222  96.4536 263.6913 14.34218642432956
IRIDIUM 143             
1 43258U 18030K   26187.73406522  .00000120  00000+0  35732-4 0  9993
2 43258  86.3968 282.3869 0002270  97.7894 262.3560 14.34217676432898
IRIDIUM 161             
1 43478U 18047C   26187.72028439  .00000273  00000+0  75090-4 0  9991
2 43478  86.4471  80.3035 0002389  79.2434 280.9035 14.43283247427950
IRIDIUM 152             
1 43479U 18047D   26188.12540506  .00000212  00000+0  68497-4 0  9997
2 43479  86.3946  79.9954 0002182  81.9953 278.1490 14.34217994425349
IRIDIUM 147             
1 43480U 18047E   26187.71312309  .00000215  00000+0  69817-4 0  9991
2 43480  86.3948  80.1733 0002281  87.9808 272.1649 14.34217455425282
IRIDIUM 110             
1 43481U 18047F   26187.71946894  .00000235  00000+0  76782-4 0  9995
2 43481  86.3950  80.2631 0002313  76.3409 283.8044 14.34218959425276
IRIDIUM 162             
1 43482U 18047G   26188.12996860  .00000265  00000+0  72851-4 0  9996
2 43482  86.4470  80.0230 0002224  84.0325 276.1129 14.43282238428006
IRIDIUM 160             
1 43569U 18061A   26188.01414782  .00000132  00000+0  40110-4 0  9990
2 43569  86.3944  48.5050 0002276  85.6311 274.5145 14.34218381416213
IRIDIUM 166             
1 43570U 18061B   26188.03951847  .00000028  00000+0  28302-5 0  9996
2 43570  86.3943  48.4446 0002235  89.2418 270.9034 14.34217934416248
IRIDIUM 158             
1 43571U 18061C   26188.00780443  .00000147  00000+0  45561-4 0  9993
2 43571  86.3943  48.4678 0002125  85.1897 274.9542 14.34217583416204
IRIDIUM 165             
1 43572U 18061D   26187.68433126  .00000113  00000+0  33268-4 0  9994
2 43572  86.3945  48.6499 0002183  89.8150 270.3296 14.34218995416188
IRIDIUM 155             
1 43573U 18061E   26187.64627493  .00000245  00000+0  80424-4 0  9995
2 43573  86.3941  48.5339 0002138  87.7088 272.4353 14.34217313416140
IRIDIUM 154             
1 43574U 18061F   26188.04585765  .00000167  00000+0  52718-4 0  9994
2 43574  86.3945  48.5014 0002291  89.3708 270.7751 14.34219421416259
IRIDIUM 163             
1 43575U 18061G   26188.02683154  .00000188  00000+0  60241-4 0  9997
2 43575  86.3941  48.4239 0002218  86.1815 273.9634 14.34216465416224
