OBJECT_NAME,OBJECT_ID,EPOCH,MEAN_MOTION,ECCENTRICITY,INCLINATION,RA_OF_ASC_NODE,ARG_OF_PERICENTER,MEAN_ANOMALY,EPHEMERIS_TYPE,CLASSIFICATION_TYPE,NORAD_CAT_ID,ELEMENT_SET_NO,REV_AT_EPOCH,BSTAR,MEAN_MOTION_DOT,MEAN_MOTION_DDOT
IRIDIUM 138,2017-083B,2026-07-06T20:26:23.051616,14.34218277,.0002101,86.3995,313.4929,89.4730,270.6707,0,U,43071,999,44695,.15106E-4,.62E-6,0
IRIDIUM 116,2017-083C,2026-07-06T21:21:11.054592,14.34218941,.000233,86.3981,313.7641,100.6241,259.5217,0,U,43072,999,44699,.10338E-3,.309E-5,0
IRIDIUM 130,2017-083D,2026-07-06T20:35:31.024608,14.34218303,.0002132,86.3989,314.0546,100.4453,259.6983,0,U,43073,999,44693,.24021E-4,.87E-6,0
IRIDIUM 151,2017-083E,2026-07-06T21:39:27.025632,14.34218675,.0002218,86.3985,313.8173,94.1421,266.0028,0,U,43074,999,44696,.29404E-4,.102E-5,0
IRIDIUM 134,2017-083F,2026-07-06T20:53:47.073408,14.34217455,.0002052,86.3981,313.8389,95.4828,264.6602,0,U,43075,999,44692,-.20486E-4,-.38E-6,0
IRIDIUM 137,2017-083G,2026-07-06T21:12:03.269088,14.34214448,.000277,86.3994,313.9278,99.3077,260.8432,0,U,43076,999,44699,.81627E-4,.248E-5,0
IRIDIUM 141,2017-083H,2026-07-06T21:02:55.116384,14.34218072,.0002182,86.3980,313.7587,92.1792,267.9654,0,U,43077,999,44699,.13213E-4,.57E-6,0
IRIDIUM 153,2017-083J,2026-07-07T04:16:23.258208,14.34218862,.0002117,86.3964,282.1134,93.2182,266.9256,0,U,43078,999,44814,.80432E-4,.245E-5,0
IRIDIUM 131,2017-083K,2026-07-06T20:44:39.120288,14.34217791,.0002121,86.3984,313.9514,93.3240,266.8199,0,U,43079,999,44692,-.32544E-5,.11E-6,0
IRIDIUM 144,2018-030A,2026-07-07T04:25:31.404864,14.34217939,.0002342,86.3962,282.0393,97.8658,262.2804,0,U,43249,999,43300,.18053E-4,.7E-6,0
IRIDIUM 149,2018-030B,2026-07-06T16:51:23.287968,14.34218704,.0002265,86.3961,282.2075,93.5688,266.5767,0,U,43250,999,43295,.31397E-4,.108E-5,0
IRIDIUM 157,2018-030C,2026-07-06T17:18:47.327040,14.34218420,.0002256,86.3966,282.2535,95.4380,264.7073,0,U,43251,999,43293,.24201E-4,.88E-6,0
IRIDIUM 140,2018-030D,2026-07-06T21:07:07.188384,14.34219162,.0002232,86.3963,282.1994,95.8847,264.2604,0,U,43252,999,43301,.43425E-4,.141E-5,0
IRIDIUM 145,2018-030E,2026-07-06T20:48:50.855328,14.34216706,.0002365,86.3963,282.1770,102.8057,257.3403,0,U,43253,999,43294,.30347E-4,.105E-5,0
IRIDIUM 146,2018-030F,2026-07-07T04:43:47.240256,14.34218794,.0002338,86.3962,282.0512,97.8784,262.2677,0,U,43254,999,43300,.24889E-4,.89E-6,0
IRIDIUM 148,2018-030G,2026-07-06T16:14:51.397728,14.34217543,.000234,86.3966,282.3122,94.9557,265.1906,0,U,43255,999,43296,.62416E-4,.195E-5,0
IRIDIUM 142,2018-030H,2026-07-07T04:52:55.403328,14.34216292,.0002336,86.3962,281.9803,99.3967,260.7493,0,U,43256,999,43300,.79963E-4,.244E-5,0
IRIDIUM 150,2018-030J,2026-07-06T16:23:59.297280,14.34218642,.0002222,86.3964,282.3148,96.4536,263.6913,0,U,43257,999,43295,.32293E-4,.11E-5,0
IRIDIUM 143,2018-030K,2026-07-06T17:37:03.235008,14.34217676,.000227,86.3968,282.3869,97.7894,262.3560,0,U,43258,999,43289,.35732E-4,.12E-5,0
IRIDIUM 161,2018-047C,2026-07-06T17:17:12.571296,14.43283247,.0002389,86.4471,80.3035,79.2434,280.9035,0,U,43478,999,42795,.7509E-4,.273E-5,0
IRIDIUM 152,2018-047D,2026-07-07T03:00:34.997184,14.34217994,.0002182,86.3946,79.9954,81.9953,278.1490,0,U,43479,999,42534,.68497E-4,.212E-5,0
IRIDIUM 147,2018-047E,2026-07-06T17:06:53.834976,14.34217455,.0002281,86.3948,80.1733,87.9808,272.1649,0,U,43480,999,42528,.69817E-4,.215E-5,0
IRIDIUM 110,2018-047F,2026-07-06T17:16:02.116416,14.34218959,.0002313,86.3950,80.2631,76.3409,283.8044,0,U,43481,999,42527,.76782E-4,.235E-5,0
IRIDIUM 162,2018-047G,2026-07-07T03:07:09.287040,14.43282238,.0002224,86.4470,80.0230,84.0325,276.1129,0,U,43482,999,42800,.72851E-4,.265E-5,0
IRIDIUM 160,2018-061A,2026-07-07T00:20:22.371648,14.34218381,.0002276,86.3944,48.5050,85.6311,274.5145,0,U,43569,999,41621,.4011E-4,.132E-5,0
IRIDIUM 166,2018-061B,2026-07-07T00:56:54.395808,14.34217934,.0002235,86.3943,48.4446,89.2418,270.9034,0,U,43570,999,41624,.28302E-5,.28E-6,0
IRIDIUM 158,2018-061C,2026-07-07T00:11:14.302752,14.34217583,.0002125,86.3943,48.4678,85.1897,274.9542,0,U,43571,999,41620,.45561E-4,.147E-5,0
IRIDIUM 165,2018-061D,2026-07-06T16:25:26.220864,14.34218995,.0002183,86.3945,48.6499,89.8150,270.3296,0,U,43572,999,41618,.33268E-4,.113E-5,0
IRIDIUM 155,2018-061E,2026-07-06T15:30:38.153952,14.34217313,.0002138,86.3941,48.5339,87.7088,272.4353,0,U,43573,999,41614,.80424E-4,.245E-5,0
IRIDIUM 154,2018-061F,2026-07-07T01:06:02.100960,14.34219421,.0002291,86.3945,48.5014,89.3708,270.7751,0,U,43574,999,41625,.52718E-4,.167E-5,0
IRIDIUM 163,2018-061G,2026-07-07T00:38:38.245056,14.34216465,.0002218,86.3941,48.4239,86.1815,273.9634,0,U,43575,999,41622,.60241E-4,.188E-5,0
